[{"OBJECT_NAME":"HAWK-3A","OBJECT_ID":"2021-059CG","EPOCH":"2026-03-09T11:39:03.628224","MEAN_MOTION":15.61551971,"ECCENTRICITY":0.00052261,"INCLINATION":97.6805,"RA_OF_ASC_NODE":259.1386,"ARG_OF_PERICENTER":339.6521,"MEAN_ANOMALY":20.4527,"EPHEMERIS_TYPE":0,"CLASSIFICATION_TYPE":"U","NORAD_CAT_ID":48957,"ELEMENT_SET_NO":999,"REV_AT_EPOCH":26225,"BSTAR":0.00045883562,"MEAN_MOTION_DOT":0.00039356,"MEAN_MOTION_DDOT":0},{"OBJECT_NAME":"BANDWAGON-2 OBJECT S","OBJECT_ID":"2024-247S","EPOCH":"2026-03-08T08:09:41.389632","MEAN_MOTION":15.56877267,"ECCENTRICITY":0.00069951,"INCLINATION":44.9695,"RA_OF_ASC_NODE":87.0884,"ARG_OF_PERICENTER":51.3226,"MEAN_ANOMALY":308.8293,"EPHEMERIS_TYPE":0,"CLASSIFICATION_TYPE":"U","NORAD_CAT_ID":62393,"ELEMENT_SET_NO":999,"REV_AT_EPOCH":6796,"BSTAR":0.001942978,"MEAN_MOTION_DOT":0.00145529,"MEAN_MOTION_DDOT":0}]
