HAWK-3A                 
1 48957U 21059CG  26068.48545866  .00039356  00000+0  45884-3 0  9995
2 48957  97.6805 259.1386 0005226 339.6521  20.4527 15.61551971262256
BANDWAGON-2 OBJECT S    
1 62393U 24247S   26067.34006238  .00145529  00000+0  19430-2 0  9993
2 62393  44.9695  87.0884 0006995  51.3226 308.8293 15.56877267 67960
